{"type": "FeatureCollection", "features": [{"type": "Feature", "geometry": {"type": "Point", "coordinates": [5.6012688, 6.32861271]}, "properties": {"sourceId": "b961a649-b737-4db2-b9d9-6cf9ec7242f3", "name": "God's Arm Properties", "kind": "place", "sources": [{"property": "", "dataset": "meta", "license": "CDLA-Permissive-2.0", "record_id": "244478088756734", "update_time": "2026-09-14T00:00:00.000Z", "confidence": 0.5821098685264587, "between": null, "provider": "meta", "resource": "meta", "version": "2026-09-14"}, {"property": "/properties/confidence", "dataset": "Overture", "license": "CDLA-Permissive-2.0", "record_id": null, "update_time": "2026-09-17T22:52:12Z", "confidence": null, "between": null, "provider": "overture", "resource": "confidence_calculation", "version": "2026-09-17"}], "release": "2026-09-23.1", "provider": "Overture Maps Foundation"}}, {"type": "Feature", "geometry": {"type": "Point", "coordinates": [5.59991625, 6.32843855]}, "properties": {"sourceId": "620ce29c-d2c9-4f33-bce8-1f1c9df0a831", "name": "St Francis Catholic Church", "kind": "place", "sources": [{"property": "", "dataset": "meta", "license": "CDLA-Permissive-2.0", "record_id": "281643299140035", "update_time": "2026-09-14T00:00:00.000Z", "confidence": 0.5582523345947266, "between": null, "provider": "meta", "resource": "meta", "version": "2026-09-14"}, {"property": "/properties/confidence", "dataset": "Overture", "license": "CDLA-Permissive-2.0", "record_id": null, "update_time": "2026-09-17T22:52:12Z", "confidence": null, "between": null, "provider": "overture", "resource": "confidence_calculation", "version": "2026-09-17"}], "release": "2026-09-23.1", "provider": "Overture Maps Foundation"}}, {"type": "Feature", "geometry": {"type": "Point", "coordinates": [5.59542, 6.33147]}, "properties": {"sourceId": "f671c837-49dc-4afb-9257-7a6ef43a45a1", "name": "Ets Mahudonou et FILS", "kind": "place", "sources": [{"property": "", "dataset": "meta", "license": "CDLA-Permissive-2.0", "record_id": "100309125560907", "update_time": "2026-09-14T00:00:00.000Z", "confidence": 0.5298340916633606, "between": null, "provider": "meta", "resource": "meta", "version": "2026-09-14"}, {"property": "/properties/confidence", "dataset": "Overture", "license": "CDLA-Permissive-2.0", "record_id": null, "update_time": "2026-09-17T22:52:12Z", "confidence": null, "between": null, "provider": "overture", "resource": "confidence_calculation", "version": "2026-09-17"}], "release": "2026-09-23.1", "provider": "Overture Maps Foundation"}}, {"type": "Feature", "geometry": {"type": "Point", "coordinates": [5.5940538791459, 6.3289631844934]}, "properties": {"sourceId": "b2ba5dee-0a81-4010-b559-886eb36f5f1b", "name": "Celebrity youth church", "kind": "place", "sources": [{"property": "", "dataset": "meta", "license": "CDLA-Permissive-2.0", "record_id": "112695693532633", "update_time": "2026-09-14T00:00:00.000Z", "confidence": 0.897997260093689, "between": null, "provider": "meta", "resource": "meta", "version": "2026-09-14"}, {"property": "/properties/confidence", "dataset": "Overture", "license": "CDLA-Permissive-2.0", "record_id": null, "update_time": "2026-09-17T22:52:12Z", "confidence": null, "between": null, "provider": "overture", "resource": "confidence_calculation", "version": "2026-09-17"}], "release": "2026-09-23.1", "provider": "Overture Maps Foundation"}}, {"type": "Feature", "geometry": {"type": "Point", "coordinates": [5.59496473, 6.32993138]}, "properties": {"sourceId": "a64b4695-204d-4ef8-b009-1991dc6d2cd0", "name": "Tips Bar and Car Wash", "kind": "place", "sources": [{"property": "", "dataset": "meta", "license": "CDLA-Permissive-2.0", "record_id": "419900674744488", "update_time": "2026-09-14T00:00:00.000Z", "confidence": 0.6925955414772034, "between": null, "provider": "meta", "resource": "meta", "version": "2026-09-14"}, {"property": "/properties/confidence", "dataset": "Overture", "license": "CDLA-Permissive-2.0", "record_id": null, "update_time": "2026-09-17T22:52:12Z", "confidence": null, "between": null, "provider": "overture", "resource": "confidence_calculation", "version": "2026-09-17"}], "release": "2026-09-23.1", "provider": "Overture Maps Foundation"}}, {"type": "Feature", "geometry": {"type": "Point", "coordinates": [5.59523725780997, 6.329993660192372]}, "properties": {"sourceId": "ca0794df-60f0-4177-9f14-97831c7fe03d", "name": "Enas telecom business", "kind": "place", "sources": [{"property": "", "dataset": "meta", "license": "CDLA-Permissive-2.0", "record_id": "110741457122038", "update_time": "2026-08-24T00:00:00.000Z", "confidence": 0.5365994572639465, "between": null, "provider": "meta", "resource": "meta", "version": "2026-08-24"}, {"property": "/properties/confidence", "dataset": "Overture", "license": "CDLA-Permissive-2.0", "record_id": null, "update_time": "2026-09-17T22:52:12Z", "confidence": null, "between": null, "provider": "overture", "resource": "confidence_calculation", "version": "2026-09-17"}], "release": "2026-09-23.1", "provider": "Overture Maps Foundation"}}, {"type": "Feature", "geometry": {"type": "Point", "coordinates": [5.59523725780997, 6.329993660192372]}, "properties": {"sourceId": "2112fed4-1202-4877-bcb8-d8af6cf04d3f", "name": "Pfi Unstoppable  Denstines", "kind": "place", "sources": [{"property": "", "dataset": "meta", "license": "CDLA-Permissive-2.0", "record_id": "1199467246857850", "update_time": "2026-09-14T00:00:00.000Z", "confidence": 0.5854635238647461, "between": null, "provider": "meta", "resource": "meta", "version": "2026-09-14"}, {"property": "/properties/confidence", "dataset": "Overture", "license": "CDLA-Permissive-2.0", "record_id": null, "update_time": "2026-09-17T22:52:12Z", "confidence": null, "between": null, "provider": "overture", "resource": "confidence_calculation", "version": "2026-09-17"}], "release": "2026-09-23.1", "provider": "Overture Maps Foundation"}}, {"type": "Feature", "geometry": {"type": "Point", "coordinates": [5.59523725780997, 6.329993660192372]}, "properties": {"sourceId": "ac281fd0-7ee7-46e9-ac4e-f2508452705a", "name": "Entrust Christian Center", "kind": "place", "sources": [{"property": "", "dataset": "meta", "license": "CDLA-Permissive-2.0", "record_id": "430562493463732", "update_time": "2026-09-14T00:00:00.000Z", "confidence": 0.6179059147834778, "between": null, "provider": "meta", "resource": "meta", "version": "2026-09-14"}, {"property": "/properties/confidence", "dataset": "Overture", "license": "CDLA-Permissive-2.0", "record_id": null, "update_time": "2026-09-17T22:52:12Z", "confidence": null, "between": null, "provider": "overture", "resource": "confidence_calculation", "version": "2026-09-17"}], "release": "2026-09-23.1", "provider": "Overture Maps Foundation"}}, {"type": "Feature", "geometry": {"type": "Point", "coordinates": [5.59523725780997, 6.329993660192372]}, "properties": {"sourceId": "062a08d3-55a4-4cb2-8113-758cba8d7743", "name": "College of Education", "kind": "place", "sources": [{"property": "", "dataset": "meta", "license": "CDLA-Permissive-2.0", "record_id": "101689824557089", "update_time": "2026-09-14T00:00:00.000Z", "confidence": 0.5429671406745911, "between": null, "provider": "meta", "resource": "meta", "version": "2026-09-14"}, {"property": "/properties/confidence", "dataset": "Overture", "license": "CDLA-Permissive-2.0", "record_id": null, "update_time": "2026-09-17T22:52:12Z", "confidence": null, "between": null, "provider": "overture", "resource": "confidence_calculation", "version": "2026-09-17"}], "release": "2026-09-23.1", "provider": "Overture Maps Foundation"}}, {"type": "Feature", "geometry": {"type": "Point", "coordinates": [5.59523725780997, 6.329993660192372]}, "properties": {"sourceId": "35ebbbc0-5393-4c81-a359-9a27fa6a166c", "name": "Jalovia Dias Fashion Academy ", "kind": "place", "sources": [{"property": "", "dataset": "meta", "license": "CDLA-Permissive-2.0", "record_id": "101496256076639", "update_time": "2026-09-14T00:00:00.000Z", "confidence": 0.7050178050994873, "between": null, "provider": "meta", "resource": "meta", "version": "2026-09-14"}, {"property": "/properties/confidence", "dataset": "Overture", "license": "CDLA-Permissive-2.0", "record_id": null, "update_time": "2026-09-17T22:52:12Z", "confidence": null, "between": null, "provider": "overture", "resource": "confidence_calculation", "version": "2026-09-17"}], "release": "2026-09-23.1", "provider": "Overture Maps Foundation"}}, {"type": "Feature", "geometry": {"type": "Point", "coordinates": [5.59523725780997, 6.329993660192372]}, "properties": {"sourceId": "9ed0cfdc-fe84-4634-87b5-e6955f256c93", "name": "C.O. Osemwengie Logistics", "kind": "place", "sources": [{"property": "", "dataset": "meta", "license": "CDLA-Permissive-2.0", "record_id": "661685323892711", "update_time": "2026-09-14T00:00:00.000Z", "confidence": 0.5853613018989563, "between": null, "provider": "meta", "resource": "meta", "version": "2026-09-14"}, {"property": "/properties/confidence", "dataset": "Overture", "license": "CDLA-Permissive-2.0", "record_id": null, "update_time": "2026-09-17T22:52:12Z", "confidence": null, "between": null, "provider": "overture", "resource": "confidence_calculation", "version": "2026-09-17"}], "release": "2026-09-23.1", "provider": "Overture Maps Foundation"}}, {"type": "Feature", "geometry": {"type": "Point", "coordinates": [5.59624529, 6.33078974]}, "properties": {"sourceId": "8919d6d3-7733-4973-b825-5aa5bfb03f62", "name": "VJ Essex Pharmacy and Stores", "kind": "place", "sources": [{"property": "", "dataset": "meta", "license": "CDLA-Permissive-2.0", "record_id": "1013863545134523", "update_time": "2026-09-14T00:00:00.000Z", "confidence": 0.25717902183532715, "between": null, "provider": "meta", "resource": "meta", "version": "2026-09-14"}, {"property": "/properties/confidence", "dataset": "Overture", "license": "CDLA-Permissive-2.0", "record_id": null, "update_time": "2026-09-17T22:52:12Z", "confidence": null, "between": null, "provider": "overture", "resource": "confidence_calculation", "version": "2026-09-17"}], "release": "2026-09-23.1", "provider": "Overture Maps Foundation"}}, {"type": "Feature", "geometry": {"type": "Point", "coordinates": [5.59579742, 6.33076186]}, "properties": {"sourceId": "aea5c396-eb7d-4d00-97bf-2797c29d08f5", "name": "Illumination E-Learning, Innovation Hub & Job Centre", "kind": "place", "sources": [{"property": "", "dataset": "meta", "license": "CDLA-Permissive-2.0", "record_id": "278546245652054", "update_time": "2026-08-24T00:00:00.000Z", "confidence": 0.388195276260376, "between": null, "provider": "meta", "resource": "meta", "version": "2026-08-24"}, {"property": "/properties/confidence", "dataset": "Overture", "license": "CDLA-Permissive-2.0", "record_id": null, "update_time": "2026-09-17T22:52:12Z", "confidence": null, "between": null, "provider": "overture", "resource": "confidence_calculation", "version": "2026-09-17"}], "release": "2026-09-23.1", "provider": "Overture Maps Foundation"}}, {"type": "Feature", "geometry": {"type": "Point", "coordinates": [5.59720203, 6.33157311]}, "properties": {"sourceId": "5a1bf5fe-4dce-4578-8ecd-209d538e40e1", "name": "Bright Nnaeto", "kind": "place", "sources": [{"property": "", "dataset": "meta", "license": "CDLA-Permissive-2.0", "record_id": "109075837658044", "update_time": "2026-09-14T00:00:00.000Z", "confidence": 0.25176048278808594, "between": null, "provider": "meta", "resource": "meta", "version": "2026-09-14"}, {"property": "/properties/confidence", "dataset": "Overture", "license": "CDLA-Permissive-2.0", "record_id": null, "update_time": "2026-09-17T22:52:12Z", "confidence": null, "between": null, "provider": "overture", "resource": "confidence_calculation", "version": "2026-09-17"}], "release": "2026-09-23.1", "provider": "Overture Maps Foundation"}}, {"type": "Feature", "geometry": {"type": "Point", "coordinates": [5.5965823, 6.33346835]}, "properties": {"sourceId": "6c5972e3-9ef0-46de-b786-44ec053c24a8", "name": "Continuous Improvement Associates", "kind": "place", "sources": [{"property": "", "dataset": "meta", "license": "CDLA-Permissive-2.0", "record_id": "437614156297563", "update_time": "2026-09-14T00:00:00.000Z", "confidence": 0.5485650300979614, "between": null, "provider": "meta", "resource": "meta", "version": "2026-09-14"}, {"property": "/properties/confidence", "dataset": "Overture", "license": "CDLA-Permissive-2.0", "record_id": null, "update_time": "2026-09-17T22:52:12Z", "confidence": null, "between": null, "provider": "overture", "resource": "confidence_calculation", "version": "2026-09-17"}], "release": "2026-09-23.1", "provider": "Overture Maps Foundation"}}, {"type": "Feature", "geometry": {"type": "Point", "coordinates": [5.596033224681, 6.334691056304]}, "properties": {"sourceId": "b7d0a551-ee00-4075-adbe-73a0ec92bc68", "name": "Ultimate Tender Help", "kind": "place", "sources": [{"property": "", "dataset": "meta", "license": "CDLA-Permissive-2.0", "record_id": "297771836993191", "update_time": "2026-09-14T00:00:00.000Z", "confidence": 0.7149437665939331, "between": null, "provider": "meta", "resource": "meta", "version": "2026-09-14"}, {"property": "/properties/confidence", "dataset": "Overture", "license": "CDLA-Permissive-2.0", "record_id": null, "update_time": "2026-09-17T22:52:12Z", "confidence": null, "between": null, "provider": "overture", "resource": "confidence_calculation", "version": "2026-09-17"}], "release": "2026-09-23.1", "provider": "Overture Maps Foundation"}}, {"type": "Feature", "geometry": {"type": "Point", "coordinates": [5.596033224681, 6.334691056304]}, "properties": {"sourceId": "f9179df8-6192-4a81-bc50-4dc7421de6a5", "name": "Milnat Laundry & Ind. Services", "kind": "place", "sources": [{"property": "", "dataset": "meta", "license": "CDLA-Permissive-2.0", "record_id": "1595964263974149", "update_time": "2026-09-14T00:00:00.000Z", "confidence": 0.783370852470398, "between": null, "provider": "meta", "resource": "meta", "version": "2026-09-14"}, {"property": "/properties/confidence", "dataset": "Overture", "license": "CDLA-Permissive-2.0", "record_id": null, "update_time": "2026-09-17T22:52:12Z", "confidence": null, "between": null, "provider": "overture", "resource": "confidence_calculation", "version": "2026-09-17"}], "release": "2026-09-23.1", "provider": "Overture Maps Foundation"}}, {"type": "Feature", "geometry": {"type": "Point", "coordinates": [5.59584, 6.33716]}, "properties": {"sourceId": "f367faea-0662-48ae-8f55-728790b78bde", "name": "Gateway Christian Centre", "kind": "place", "sources": [{"property": "", "dataset": "meta", "license": "CDLA-Permissive-2.0", "record_id": "102188849589257", "update_time": "2026-09-14T00:00:00.000Z", "confidence": 0.6480413675308228, "between": null, "provider": "meta", "resource": "meta", "version": "2026-09-14"}, {"property": "/properties/confidence", "dataset": "Overture", "license": "CDLA-Permissive-2.0", "record_id": null, "update_time": "2026-09-17T22:52:12Z", "confidence": null, "between": null, "provider": "overture", "resource": "confidence_calculation", "version": "2026-09-17"}], "release": "2026-09-23.1", "provider": "Overture Maps Foundation"}}, {"type": "Feature", "geometry": {"type": "Point", "coordinates": [5.59584, 6.33716]}, "properties": {"sourceId": "698352c9-db50-4fd0-bc51-cc9f2cb64ff6", "name": "Ebenezer life bible church int'l", "kind": "place", "sources": [{"property": "", "dataset": "meta", "license": "CDLA-Permissive-2.0", "record_id": "102507845743502", "update_time": "2026-09-14T00:00:00.000Z", "confidence": 0.5978981852531433, "between": null, "provider": "meta", "resource": "meta", "version": "2026-09-14"}, {"property": "/properties/confidence", "dataset": "Overture", "license": "CDLA-Permissive-2.0", "record_id": null, "update_time": "2026-09-17T22:52:12Z", "confidence": null, "between": null, "provider": "overture", "resource": "confidence_calculation", "version": "2026-09-17"}], "release": "2026-09-23.1", "provider": "Overture Maps Foundation"}}, {"type": "Feature", "geometry": {"type": "Point", "coordinates": [5.59613961, 6.33835574]}, "properties": {"sourceId": "5ed0b9bb-6fb7-44ab-99bd-efc9f03f8a36", "name": "Victory Royal Pride Academy", "kind": "place", "sources": [{"property": "", "dataset": "meta", "license": "CDLA-Permissive-2.0", "record_id": "101346929300317", "update_time": "2026-09-14T00:00:00.000Z", "confidence": 0.7789371609687805, "between": null, "provider": "meta", "resource": "meta", "version": "2026-09-14"}, {"property": "/properties/confidence", "dataset": "Overture", "license": "CDLA-Permissive-2.0", "record_id": null, "update_time": "2026-09-17T22:52:12Z", "confidence": null, "between": null, "provider": "overture", "resource": "confidence_calculation", "version": "2026-09-17"}], "release": "2026-09-23.1", "provider": "Overture Maps Foundation"}}, {"type": "Feature", "geometry": {"type": "Point", "coordinates": [5.59595514, 6.33681791]}, "properties": {"sourceId": "0785c55a-97a8-4c88-990f-e6d7df019248", "name": "Nosamega Technical Company", "kind": "place", "sources": [{"property": "", "dataset": "meta", "license": "CDLA-Permissive-2.0", "record_id": "125259110974761", "update_time": "2026-09-14T00:00:00.000Z", "confidence": 0.23774106800556183, "between": null, "provider": "meta", "resource": "meta", "version": "2026-09-14"}, {"property": "/properties/confidence", "dataset": "Overture", "license": "CDLA-Permissive-2.0", "record_id": null, "update_time": "2026-09-17T22:52:12Z", "confidence": null, "between": null, "provider": "overture", "resource": "confidence_calculation", "version": "2026-09-17"}], "release": "2026-09-23.1", "provider": "Overture Maps Foundation"}}, {"type": "Feature", "geometry": {"type": "Point", "coordinates": [5.59611393, 6.33870877]}, "properties": {"sourceId": "712e5660-02fb-4211-b49a-894d4cc005a0", "name": "Euphoria Lounge and Bar", "kind": "place", "sources": [{"property": "", "dataset": "meta", "license": "CDLA-Permissive-2.0", "record_id": "139429212583014", "update_time": "2026-09-14T00:00:00.000Z", "confidence": 0.7571737766265869, "between": null, "provider": "meta", "resource": "meta", "version": "2026-09-14"}, {"property": "/properties/confidence", "dataset": "Overture", "license": "CDLA-Permissive-2.0", "record_id": null, "update_time": "2026-09-17T22:52:12Z", "confidence": null, "between": null, "provider": "overture", "resource": "confidence_calculation", "version": "2026-09-17"}], "release": "2026-09-23.1", "provider": "Overture Maps Foundation"}}, {"type": "Feature", "geometry": {"type": "Point", "coordinates": [5.59554, 6.33883]}, "properties": {"sourceId": "08d1f4cf-adef-4aab-94f3-f32193da30a9", "name": "Christ light bible church", "kind": "place", "sources": [{"property": "", "dataset": "meta", "license": "CDLA-Permissive-2.0", "record_id": "110469567878142", "update_time": "2026-09-14T00:00:00.000Z", "confidence": 0.7568618059158325, "between": null, "provider": "meta", "resource": "meta", "version": "2026-09-14"}, {"property": "/properties/confidence", "dataset": "Overture", "license": "CDLA-Permissive-2.0", "record_id": null, "update_time": "2026-09-17T22:52:12Z", "confidence": null, "between": null, "provider": "overture", "resource": "confidence_calculation", "version": "2026-09-17"}], "release": "2026-09-23.1", "provider": "Overture Maps Foundation"}}, {"type": "Feature", "geometry": {"type": "Point", "coordinates": [5.59554, 6.33883]}, "properties": {"sourceId": "7e3bfe20-dd2d-451a-83e6-570ee631bf14", "name": "Refined kiddies", "kind": "place", "sources": [{"property": "", "dataset": "meta", "license": "CDLA-Permissive-2.0", "record_id": "274077806598270", "update_time": "2026-09-14T00:00:00.000Z", "confidence": 0.6029586791992188, "between": null, "provider": "meta", "resource": "meta", "version": "2026-09-14"}, {"property": "/properties/confidence", "dataset": "Overture", "license": "CDLA-Permissive-2.0", "record_id": null, "update_time": "2026-09-17T22:52:12Z", "confidence": null, "between": null, "provider": "overture", "resource": "confidence_calculation", "version": "2026-09-17"}], "release": "2026-09-23.1", "provider": "Overture Maps Foundation"}}, {"type": "Feature", "geometry": {"type": "Point", "coordinates": [5.5990696, 6.3399759687571]}, "properties": {"sourceId": "71a6941d-a3b4-4c42-9d7e-beddd1c9b292", "name": "Noble C. Foundation", "kind": "place", "sources": [{"property": "", "dataset": "meta", "license": "CDLA-Permissive-2.0", "record_id": "149277644939254", "update_time": "2026-09-14T00:00:00.000Z", "confidence": 0.2533344328403473, "between": null, "provider": "meta", "resource": "meta", "version": "2026-09-14"}, {"property": "/properties/confidence", "dataset": "Overture", "license": "CDLA-Permissive-2.0", "record_id": null, "update_time": "2026-09-17T22:52:12Z", "confidence": null, "between": null, "provider": "overture", "resource": "confidence_calculation", "version": "2026-09-17"}], "release": "2026-09-23.1", "provider": "Overture Maps Foundation"}}, {"type": "Feature", "geometry": {"type": "Point", "coordinates": [5.59903, 6.33871]}, "properties": {"sourceId": "d648c421-cef1-4f72-b3f3-c5291af75bfa", "name": "Optimal believer", "kind": "place", "sources": [{"property": "", "dataset": "meta", "license": "CDLA-Permissive-2.0", "record_id": "102548822336406", "update_time": "2026-09-14T00:00:00.000Z", "confidence": 0.06228666752576828, "between": null, "provider": "meta", "resource": "meta", "version": "2026-09-14"}, {"property": "/properties/confidence", "dataset": "Overture", "license": "CDLA-Permissive-2.0", "record_id": null, "update_time": "2026-09-17T22:52:12Z", "confidence": null, "between": null, "provider": "overture", "resource": "confidence_calculation", "version": "2026-09-17"}], "release": "2026-09-23.1", "provider": "Overture Maps Foundation"}}, {"type": "Feature", "geometry": {"type": "Point", "coordinates": [5.59918, 6.33742]}, "properties": {"sourceId": "bb6be0da-a89f-47ec-81ab-ca6c82e7b88c", "name": "Ivory Event Centre - Benin, Nigeria", "kind": "place", "sources": [{"property": "", "dataset": "meta", "license": "CDLA-Permissive-2.0", "record_id": "107384918148748", "update_time": "2026-09-14T00:00:00.000Z", "confidence": 0.6066185832023621, "between": null, "provider": "meta", "resource": "meta", "version": "2026-09-14"}, {"property": "/properties/confidence", "dataset": "Overture", "license": "CDLA-Permissive-2.0", "record_id": null, "update_time": "2026-09-17T22:52:12Z", "confidence": null, "between": null, "provider": "overture", "resource": "confidence_calculation", "version": "2026-09-17"}], "release": "2026-09-23.1", "provider": "Overture Maps Foundation"}}, {"type": "Feature", "geometry": {"type": "Point", "coordinates": [5.6013, 6.33856]}, "properties": {"sourceId": "b5c70795-04bd-4180-837b-7b8971fcbdf0", "name": "FILIO Rejuvenation, Pain and  Homecare Clinic", "kind": "place", "sources": [{"property": "", "dataset": "meta", "license": "CDLA-Permissive-2.0", "record_id": "353808707810559", "update_time": "2026-09-14T00:00:00.000Z", "confidence": 0.46757474541664124, "between": null, "provider": "meta", "resource": "meta", "version": "2026-09-14"}, {"property": "/properties/confidence", "dataset": "Overture", "license": "CDLA-Permissive-2.0", "record_id": null, "update_time": "2026-09-17T22:52:12Z", "confidence": null, "between": null, "provider": "overture", "resource": "confidence_calculation", "version": "2026-09-17"}], "release": "2026-09-23.1", "provider": "Overture Maps Foundation"}}, {"type": "Feature", "geometry": {"type": "Point", "coordinates": [5.601377760315, 6.3355633415246]}, "properties": {"sourceId": "ce2f445a-e131-496b-9d6e-2d33b4ef26a9", "name": "University of Benin Ekehuan Campus", "kind": "place", "sources": [{"property": "", "dataset": "meta", "license": "CDLA-Permissive-2.0", "record_id": "305731129458207", "update_time": "2026-09-14T00:00:00.000Z", "confidence": 0.7095209956169128, "between": null, "provider": "meta", "resource": "meta", "version": "2026-09-14"}, {"property": "/properties/confidence", "dataset": "Overture", "license": "CDLA-Permissive-2.0", "record_id": null, "update_time": "2026-09-17T22:52:12Z", "confidence": null, "between": null, "provider": "overture", "resource": "confidence_calculation", "version": "2026-09-17"}], "release": "2026-09-23.1", "provider": "Overture Maps Foundation"}}, {"type": "Feature", "geometry": {"type": "Point", "coordinates": [5.5996799468994, 6.3316777673651]}, "properties": {"sourceId": "323914d2-d063-4034-862a-cdb79f244966", "name": "Bereal Studios", "kind": "place", "sources": [{"property": "", "dataset": "meta", "license": "CDLA-Permissive-2.0", "record_id": "149242175526561", "update_time": "2026-09-14T00:00:00.000Z", "confidence": 0.49556300044059753, "between": null, "provider": "meta", "resource": "meta", "version": "2026-09-14"}, {"property": "/properties/confidence", "dataset": "Overture", "license": "CDLA-Permissive-2.0", "record_id": null, "update_time": "2026-09-17T22:52:12Z", "confidence": null, "between": null, "provider": "overture", "resource": "confidence_calculation", "version": "2026-09-17"}], "release": "2026-09-23.1", "provider": "Overture Maps Foundation"}}, {"type": "Feature", "geometry": {"type": "Point", "coordinates": [5.60206, 6.33235]}, "properties": {"sourceId": "43f834f0-fb94-4f99-9818-17c1bbae2432", "name": "Preorder with jojo", "kind": "place", "sources": [{"property": "", "dataset": "meta", "license": "CDLA-Permissive-2.0", "record_id": "100121816127339", "update_time": "2026-09-14T00:00:00.000Z", "confidence": 0.21892008185386658, "between": null, "provider": "meta", "resource": "meta", "version": "2026-09-14"}, {"property": "/properties/confidence", "dataset": "Overture", "license": "CDLA-Permissive-2.0", "record_id": null, "update_time": "2026-09-17T22:52:12Z", "confidence": null, "between": null, "provider": "overture", "resource": "confidence_calculation", "version": "2026-09-17"}], "release": "2026-09-23.1", "provider": "Overture Maps Foundation"}}, {"type": "Feature", "geometry": {"type": "Point", "coordinates": [5.60206, 6.33235]}, "properties": {"sourceId": "84121e65-238a-4a3c-af76-a1d94ca59b3f", "name": "Fadudu Global Network LTD", "kind": "place", "sources": [{"property": "", "dataset": "meta", "license": "CDLA-Permissive-2.0", "record_id": "112789093797659", "update_time": "2026-09-14T00:00:00.000Z", "confidence": 0.42130178213119507, "between": null, "provider": "meta", "resource": "meta", "version": "2026-09-14"}, {"property": "/properties/confidence", "dataset": "Overture", "license": "CDLA-Permissive-2.0", "record_id": null, "update_time": "2026-09-17T22:52:12Z", "confidence": null, "between": null, "provider": "overture", "resource": "confidence_calculation", "version": "2026-09-17"}], "release": "2026-09-23.1", "provider": "Overture Maps Foundation"}}, {"type": "Feature", "geometry": {"type": "Point", "coordinates": [5.60206, 6.33235]}, "properties": {"sourceId": "dbe311d3-9a40-464a-bac2-43620a6d26c6", "name": "Cheldam International Schools", "kind": "place", "sources": [{"property": "", "dataset": "meta", "license": "CDLA-Permissive-2.0", "record_id": "157610667433362", "update_time": "2026-09-14T00:00:00.000Z", "confidence": 0.700649082660675, "between": null, "provider": "meta", "resource": "meta", "version": "2026-09-14"}, {"property": "/properties/confidence", "dataset": "Overture", "license": "CDLA-Permissive-2.0", "record_id": null, "update_time": "2026-09-17T22:52:12Z", "confidence": null, "between": null, "provider": "overture", "resource": "confidence_calculation", "version": "2026-09-17"}], "release": "2026-09-23.1", "provider": "Overture Maps Foundation"}}, {"type": "Feature", "geometry": {"type": "Point", "coordinates": [5.60206, 6.33235]}, "properties": {"sourceId": "18df8a45-8bc2-4810-aa69-a9c535eee46f", "name": "EDO LITES", "kind": "place", "sources": [{"property": "", "dataset": "meta", "license": "CDLA-Permissive-2.0", "record_id": "115302051540882", "update_time": "2026-09-14T00:00:00.000Z", "confidence": 0.15580642223358154, "between": null, "provider": "meta", "resource": "meta", "version": "2026-09-14"}, {"property": "/properties/confidence", "dataset": "Overture", "license": "CDLA-Permissive-2.0", "record_id": null, "update_time": "2026-09-17T22:52:12Z", "confidence": null, "between": null, "provider": "overture", "resource": "confidence_calculation", "version": "2026-09-17"}], "release": "2026-09-23.1", "provider": "Overture Maps Foundation"}}, {"type": "Feature", "geometry": {"type": "Point", "coordinates": [5.60206, 6.33235]}, "properties": {"sourceId": "95e3be77-0bbe-4bce-ae9c-510df1868e8f", "name": "Abundant Fruitfulness Bible Church ", "kind": "place", "sources": [{"property": "", "dataset": "meta", "license": "CDLA-Permissive-2.0", "record_id": "103628016082719", "update_time": "2026-09-14T00:00:00.000Z", "confidence": 0.5507588982582092, "between": null, "provider": "meta", "resource": "meta", "version": "2026-09-14"}, {"property": "/properties/confidence", "dataset": "Overture", "license": "CDLA-Permissive-2.0", "record_id": null, "update_time": "2026-09-17T22:52:12Z", "confidence": null, "between": null, "provider": "overture", "resource": "confidence_calculation", "version": "2026-09-17"}], "release": "2026-09-23.1", "provider": "Overture Maps Foundation"}}, {"type": "Feature", "geometry": {"type": "Point", "coordinates": [5.60206, 6.33235]}, "properties": {"sourceId": "b0dbd7ac-4d77-4ec8-81ac-f296460cfc55", "name": "Garden Heights Academy ", "kind": "place", "sources": [{"property": "", "dataset": "meta", "license": "CDLA-Permissive-2.0", "record_id": "118036927970348", "update_time": "2026-09-14T00:00:00.000Z", "confidence": 0.7718942165374756, "between": null, "provider": "meta", "resource": "meta", "version": "2026-09-14"}, {"property": "/properties/confidence", "dataset": "Overture", "license": "CDLA-Permissive-2.0", "record_id": null, "update_time": "2026-09-17T22:52:12Z", "confidence": null, "between": null, "provider": "overture", "resource": "confidence_calculation", "version": "2026-09-17"}], "release": "2026-09-23.1", "provider": "Overture Maps Foundation"}}, {"type": "Feature", "geometry": {"type": "Point", "coordinates": [5.60206, 6.33235]}, "properties": {"sourceId": "26a548bf-60d3-4ca5-8497-dff5a4bbb3f3", "name": "The Habourage Assembly", "kind": "place", "sources": [{"property": "", "dataset": "meta", "license": "CDLA-Permissive-2.0", "record_id": "113990915081786", "update_time": "2026-09-14T00:00:00.000Z", "confidence": 0.5251803398132324, "between": null, "provider": "meta", "resource": "meta", "version": "2026-09-14"}, {"property": "/properties/confidence", "dataset": "Overture", "license": "CDLA-Permissive-2.0", "record_id": null, "update_time": "2026-09-17T22:52:12Z", "confidence": null, "between": null, "provider": "overture", "resource": "confidence_calculation", "version": "2026-09-17"}], "release": "2026-09-23.1", "provider": "Overture Maps Foundation"}}, {"type": "Feature", "geometry": {"type": "Point", "coordinates": [5.60356716, 6.33003001]}, "properties": {"sourceId": "dd0bd5c6-8623-4da2-8e3d-9e41abedd8fb", "name": "peace digital services", "kind": "place", "sources": [{"property": "", "dataset": "meta", "license": "CDLA-Permissive-2.0", "record_id": "120268441005565", "update_time": "2026-09-14T00:00:00.000Z", "confidence": 0.2277028113603592, "between": null, "provider": "meta", "resource": "meta", "version": "2026-09-14"}, {"property": "/properties/confidence", "dataset": "Overture", "license": "CDLA-Permissive-2.0", "record_id": null, "update_time": "2026-09-17T22:52:12Z", "confidence": null, "between": null, "provider": "overture", "resource": "confidence_calculation", "version": "2026-09-17"}], "release": "2026-09-23.1", "provider": "Overture Maps Foundation"}}, {"type": "Feature", "geometry": {"type": "Point", "coordinates": [5.6046586, 6.33017762]}, "properties": {"sourceId": "46b5c108-69a2-4089-9a7c-91945aaed6df", "name": "Ehize And Sons Enterprises", "kind": "place", "sources": [{"property": "", "dataset": "meta", "license": "CDLA-Permissive-2.0", "record_id": "280506415370467", "update_time": "2026-09-14T00:00:00.000Z", "confidence": 0.1601354330778122, "between": null, "provider": "meta", "resource": "meta", "version": "2026-09-14"}, {"property": "/properties/confidence", "dataset": "Overture", "license": "CDLA-Permissive-2.0", "record_id": null, "update_time": "2026-09-17T22:52:12Z", "confidence": null, "between": null, "provider": "overture", "resource": "confidence_calculation", "version": "2026-09-17"}], "release": "2026-09-23.1", "provider": "Overture Maps Foundation"}}, {"type": "Feature", "geometry": {"type": "Point", "coordinates": [5.60491773, 6.33224347]}, "properties": {"sourceId": "b70b5977-fcce-4bc7-993f-421d6b0879e0", "name": "Pedi beauty empire", "kind": "place", "sources": [{"property": "", "dataset": "meta", "license": "CDLA-Permissive-2.0", "record_id": "104168817732392", "update_time": "2026-09-14T00:00:00.000Z", "confidence": 0.5096893906593323, "between": null, "provider": "meta", "resource": "meta", "version": "2026-09-14"}, {"property": "/properties/confidence", "dataset": "Overture", "license": "CDLA-Permissive-2.0", "record_id": null, "update_time": "2026-09-17T22:52:12Z", "confidence": null, "between": null, "provider": "overture", "resource": "confidence_calculation", "version": "2026-09-17"}], "release": "2026-09-23.1", "provider": "Overture Maps Foundation"}}, {"type": "Feature", "geometry": {"type": "Point", "coordinates": [5.6032917, 6.3329209]}, "properties": {"sourceId": "9d234bd8-6252-4de4-9cfe-de7c2c7ac227", "name": "Dunamis Ekenwan, Benin City, Edo State", "kind": "place", "sources": [{"property": "", "dataset": "meta", "license": "CDLA-Permissive-2.0", "record_id": "1538104589758393", "update_time": "2026-09-14T00:00:00.000Z", "confidence": 0.7681249976158142, "between": null, "provider": "meta", "resource": "meta", "version": "2026-09-14"}, {"property": "/properties/confidence", "dataset": "Overture", "license": "CDLA-Permissive-2.0", "record_id": null, "update_time": "2026-09-17T22:52:12Z", "confidence": null, "between": null, "provider": "overture", "resource": "confidence_calculation", "version": "2026-09-17"}], "release": "2026-09-23.1", "provider": "Overture Maps Foundation"}}, {"type": "Feature", "geometry": {"type": "Point", "coordinates": [5.6032917, 6.3329209]}, "properties": {"sourceId": "e147e409-ff0e-4127-8b76-d5ebbbca8a2e", "name": "Eso hairs", "kind": "place", "sources": [{"property": "", "dataset": "meta", "license": "CDLA-Permissive-2.0", "record_id": "107580595338657", "update_time": "2026-09-14T00:00:00.000Z", "confidence": 0.28603455424308777, "between": null, "provider": "meta", "resource": "meta", "version": "2026-09-14"}, {"property": "/properties/confidence", "dataset": "Overture", "license": "CDLA-Permissive-2.0", "record_id": null, "update_time": "2026-09-17T22:52:12Z", "confidence": null, "between": null, "provider": "overture", "resource": "confidence_calculation", "version": "2026-09-17"}], "release": "2026-09-23.1", "provider": "Overture Maps Foundation"}}, {"type": "Feature", "geometry": {"type": "Point", "coordinates": [5.6032917, 6.3329209]}, "properties": {"sourceId": "6f454f90-2e90-4c7a-8c08-90ef1d1cbe20", "name": "Oval stream Autocare", "kind": "place", "sources": [{"property": "", "dataset": "meta", "license": "CDLA-Permissive-2.0", "record_id": "1804114963159595", "update_time": "2026-08-24T00:00:00.000Z", "confidence": 0.5376174449920654, "between": null, "provider": "meta", "resource": "meta", "version": "2026-08-24"}, {"property": "/properties/confidence", "dataset": "Overture", "license": "CDLA-Permissive-2.0", "record_id": null, "update_time": "2026-09-17T22:52:12Z", "confidence": null, "between": null, "provider": "overture", "resource": "confidence_calculation", "version": "2026-09-17"}], "release": "2026-09-23.1", "provider": "Overture Maps Foundation"}}, {"type": "Feature", "geometry": {"type": "Point", "coordinates": [5.6037464999999, 6.334986]}, "properties": {"sourceId": "1c09bf9c-2b3e-440f-b60e-ec3a48754108", "name": "Benin City Siluko Road", "kind": "place", "sources": [{"property": "", "dataset": "meta", "license": "CDLA-Permissive-2.0", "record_id": "241859846243617", "update_time": "2026-09-14T00:00:00.000Z", "confidence": 0.4928322434425354, "between": null, "provider": "meta", "resource": "meta", "version": "2026-09-14"}, {"property": "/properties/confidence", "dataset": "Overture", "license": "CDLA-Permissive-2.0", "record_id": null, "update_time": "2026-09-17T22:52:12Z", "confidence": null, "between": null, "provider": "overture", "resource": "confidence_calculation", "version": "2026-09-17"}], "release": "2026-09-23.1", "provider": "Overture Maps Foundation"}}, {"type": "Feature", "geometry": {"type": "Point", "coordinates": [5.603761, 6.334966]}, "properties": {"sourceId": "48c2157a-0d0c-43df-9a3b-eb462b89c0aa", "name": "University of Benin", "kind": "place", "sources": [{"property": "", "dataset": "AllThePlaces", "license": "CC0-1.0", "record_id": "W3ULR983Opct4c5c3JfGSW_YNlo=", "update_time": "2026-09-09T08:16:19.000Z", "confidence": 0.8, "between": null, "provider": "alltheplaces", "resource": "alltheplaces", "version": "2026-09-09"}, {"property": "/properties/confidence", "dataset": "Overture", "license": "CDLA-Permissive-2.0", "record_id": null, "update_time": "2026-09-17T22:52:12Z", "confidence": null, "between": null, "provider": "overture", "resource": "confidence_calculation", "version": "2026-09-17"}], "release": "2026-09-23.1", "provider": "Overture Maps Foundation"}}, {"type": "Feature", "geometry": {"type": "Point", "coordinates": [5.60409624, 6.33499745]}, "properties": {"sourceId": "3943fde8-f1a3-4730-8abf-dbd3f42429a1", "name": "Benson Idahosa University", "kind": "place", "sources": [{"property": "", "dataset": "meta", "license": "CDLA-Permissive-2.0", "record_id": "109850515701406", "update_time": "2026-09-14T00:00:00.000Z", "confidence": 0.8201249837875366, "between": null, "provider": "meta", "resource": "meta", "version": "2026-09-14"}, {"property": "/properties/confidence", "dataset": "Overture", "license": "CDLA-Permissive-2.0", "record_id": null, "update_time": "2026-09-17T22:52:12Z", "confidence": null, "between": null, "provider": "overture", "resource": "confidence_calculation", "version": "2026-09-17"}], "release": "2026-09-23.1", "provider": "Overture Maps Foundation"}}, {"type": "Feature", "geometry": {"type": "Point", "coordinates": [5.6042104, 6.33380068]}, "properties": {"sourceId": "48571f69-82ca-40a2-a128-ecb1d355840e", "name": "Christ Apostolic Church of God Mission", "kind": "place", "sources": [{"property": "", "dataset": "meta", "license": "CDLA-Permissive-2.0", "record_id": "2042523915776035", "update_time": "2026-09-14T00:00:00.000Z", "confidence": 0.5750815868377686, "between": null, "provider": "meta", "resource": "meta", "version": "2026-09-14"}, {"property": "/properties/confidence", "dataset": "Overture", "license": "CDLA-Permissive-2.0", "record_id": null, "update_time": "2026-09-17T22:52:12Z", "confidence": null, "between": null, "provider": "overture", "resource": "confidence_calculation", "version": "2026-09-17"}], "release": "2026-09-23.1", "provider": "Overture Maps Foundation"}}, {"type": "Feature", "geometry": {"type": "Point", "coordinates": [5.60446805, 6.3331289]}, "properties": {"sourceId": "9a62ad08-3477-4d18-9a2d-09d1131d8bb7", "name": "Rino Club and Bar", "kind": "place", "sources": [{"property": "", "dataset": "Microsoft", "license": "CDLA-Permissive-2.0", "record_id": "2251799821356282", "update_time": "2024-04-19T18:07:38.537Z", "confidence": 0.85, "between": null, "provider": "microsoft", "resource": "microsoft", "version": "2025-10-20"}, {"property": "/properties/confidence", "dataset": "Overture", "license": "CDLA-Permissive-2.0", "record_id": null, "update_time": "2026-09-17T22:52:12Z", "confidence": null, "between": null, "provider": "overture", "resource": "confidence_calculation", "version": "2026-09-17"}], "release": "2026-09-23.1", "provider": "Overture Maps Foundation"}}, {"type": "Feature", "geometry": {"type": "Point", "coordinates": [5.6057, 6.3347]}, "properties": {"sourceId": "202d483e-6587-450c-941b-dd5ee814c7c7", "name": "Omobest aluminium ebohon", "kind": "place", "sources": [{"property": "", "dataset": "meta", "license": "CDLA-Permissive-2.0", "record_id": "111048195069875", "update_time": "2026-09-14T00:00:00.000Z", "confidence": 0.5442761778831482, "between": null, "provider": "meta", "resource": "meta", "version": "2026-09-14"}, {"property": "/properties/confidence", "dataset": "Overture", "license": "CDLA-Permissive-2.0", "record_id": null, "update_time": "2026-09-17T22:52:12Z", "confidence": null, "between": null, "provider": "overture", "resource": "confidence_calculation", "version": "2026-09-17"}], "release": "2026-09-23.1", "provider": "Overture Maps Foundation"}}, {"type": "Feature", "geometry": {"type": "Point", "coordinates": [5.6057, 6.3347]}, "properties": {"sourceId": "57942fc2-3cf4-496a-b010-dc8fc7a24ae1", "name": "City of Grace Bible Church", "kind": "place", "sources": [{"property": "", "dataset": "meta", "license": "CDLA-Permissive-2.0", "record_id": "111057703702217", "update_time": "2026-09-14T00:00:00.000Z", "confidence": 0.6535126566886902, "between": null, "provider": "meta", "resource": "meta", "version": "2026-09-14"}, {"property": "/properties/confidence", "dataset": "Overture", "license": "CDLA-Permissive-2.0", "record_id": null, "update_time": "2026-09-17T22:52:12Z", "confidence": null, "between": null, "provider": "overture", "resource": "confidence_calculation", "version": "2026-09-17"}], "release": "2026-09-23.1", "provider": "Overture Maps Foundation"}}, {"type": "Feature", "geometry": {"type": "Point", "coordinates": [5.6051301142967, 6.3311036050514]}, "properties": {"sourceId": "99d3e445-705f-4750-9b63-91a7c9b5051d", "name": "Keyz music entertainment ltd", "kind": "place", "sources": [{"property": "", "dataset": "meta", "license": "CDLA-Permissive-2.0", "record_id": "297197783710288", "update_time": "2026-09-14T00:00:00.000Z", "confidence": 0.7751315832138062, "between": null, "provider": "meta", "resource": "meta", "version": "2026-09-14"}, {"property": "/properties/confidence", "dataset": "Overture", "license": "CDLA-Permissive-2.0", "record_id": null, "update_time": "2026-09-17T22:52:12Z", "confidence": null, "between": null, "provider": "overture", "resource": "confidence_calculation", "version": "2026-09-17"}], "release": "2026-09-23.1", "provider": "Overture Maps Foundation"}}], "source": {"provider": "Overture Maps Foundation", "release": "2026-09-23.1", "bounds": [5.594, 6.328, 5.606, 6.34], "licence": "https://docs.overturemaps.org/attribution/", "counts": {"place": 51}}}